GALAXY 25 (G-25)        
1 24812U 97026A   22249.45172723 -.00000019  00000+0  00000+0 0  9990
2 24812   3.8872  82.8372 0002486  72.3831  59.0387  1.00271301 92548
INTELSAT 5 (IS-5)       
1 24916U 97046A   22249.45477600 -.00000076  00000+0  00000+0 0  9992
2 24916   7.3966  60.4822 0004305 134.9270 119.9899  1.00272679 91780
GALAXY 11 (G-11)        
1 26038U 99071A   22249.49166500 -.00000178  00000+0  00000+0 0  9990
2 26038   3.2088  86.6904 0000159 315.0024  27.7781  1.00271309 83247
INTELSAT 9 (IS-9)       
1 26451U 00043A   22249.44013330 -.00000301  00000+0  00000+0 0  9995
2 26451   7.3820  60.6587 0002524 112.2803 281.0397  1.00271478 30319
INTELSAT 1R (IS-1R)     
1 26608U 00072A   22249.53973920 -.00000154  00000+0  00000+0 0  9997
2 26608   4.6543  79.8869 0000164 320.6962 296.4393  1.00272324 79825
INTELSAT 10 (IS-10)     
1 26766U 01019A   22249.53741249  .00000019  00000+0  00000+0 0  9990
2 26766   5.7655  72.6631 0002413  86.7629 197.4589  1.00270774 31780
INTELSAT 901 (IS-901)   
1 26824U 01024A   22249.43297917 -.00000217  00000+0  00000+0 0  9999
2 26824   0.0396 271.0296 0001264 253.7670 309.0944  1.00271284  9140
INTELSAT 902 (IS-902)   
1 26900U 01039A   22249.44979837 -.00000297  00000+0  00000+0 0  9997
2 26900   2.6039  88.1142 0002272  81.5785 287.6725  1.00275252 76868
INTELSAT 904 (IS-904)   
1 27380U 02007A   22249.43254316 -.00000229  00000+0  00000+0 0  9998
2 27380   3.4347  85.0721 0003018  79.8954 306.7582  1.00271675 75259
DIRECTV 5 (TEMPO 1)     
1 27426U 02023A   22249.48826418 -.00000071  00000+0  00000+0 0  9995
2 27426   1.3283  92.2429 0003585  84.5803 234.3919  1.00271732 74282
INTELSAT 905 (IS-905)   
1 27438U 02027A   22249.43358955 -.00000200  00000+0  00000+0 0  9997
2 27438   3.2566  85.8047 0002695  78.7620 312.5410  1.00271015 37533
GALAXY 3C (G-3C)        
1 27445U 02030A   22249.49131619 -.00000167  00000+0  00000+0 0  9993
2 27445   0.1770  86.9673 0000328 183.5504 157.1010  1.00271692 32656
INTELSAT 906 (IS-906)   
1 27513U 02041A   22249.45129123 -.00000001  00000+0  00000+0 0  9991
2 27513   2.2728  89.5715 0002809  78.2998  44.2558  1.00272251 73196
GALAXY 12 (G-12)        
1 27715U 03013B   22249.48451456  .00000043  00000+0  00000+0 0  9990
2 27715   3.4677  84.7121 0001848  78.0365 228.2230  1.00271791 38259
GALAXY 23 (G-23)        
1 27854U 03034A   22249.48608417 -.00000002  00000+0  00000+0 0  9994
2 27854   0.0239 224.2415 0002854 302.4578 232.8527  1.00271868 69906
GALAXY 13 (HORIZONS-1)  
1 27954U 03044A   22249.26462662  .00000034  00000+0  00000+0 0  9996
2 27954   0.0248 240.7439 0002076 301.9654 130.8590  1.00270808 32732
INTELSAT 10-02          
1 28358U 04022A   22249.41299372 -.00000026  00000+0  00000+0 0  9997
2 28358   0.0432 269.8767 0000981 248.6451 334.6474  1.00270781 66717
XM-3 (RHYTHM)           
1 28626U 05008A   22249.49323462 -.00000220  00000+0  00000+0 0  9992
2 28626   0.0216 135.2266 0001666  39.0515 263.7571  1.00268471 28787
DIRECTV 8               
1 28659U 05019A   22249.48652017 -.00000014  00000+0  00000+0 0  9991
2 28659   0.0161 146.2463 0002847  25.2442 230.1588  1.00271469 63237
GALAXY 28 (G-28)        
1 28702U 05022A   22249.49244980 -.00000200  00000+0  00000+0 0  9998
2 28702   0.0107  89.6275 0002077  71.6008 272.6226  1.00270625 38140
GALAXY 14 (G-14)        
1 28790U 05030A   22249.22980229  .00000141  00000+0  00000+0 0  9991
2 28790   1.4609  91.3681 0002086  62.8945 306.6703  1.00271165 62473
GALAXY 15 (G-15)        
1 28884U 05041A   22249.48381696  .00000061  00000+0  00000+0 0  9999
2 28884   0.0257  86.9296 0001991 101.7923 198.4389  1.00281007 61771
SPACEWAY 2              
1 28903U 05046B   22249.48259616  .00000088  00000+0  00000+0 0  9991
2 28903   2.0861  87.1626 0000864 359.1682 294.0535  1.00271334 37507
GALAXY 16 (G-16)        
1 29236U 06023A   22249.49053139 -.00000142  00000+0  00000+0 0  9992
2 29236   0.0453 270.6149 0002871 255.6977 256.8325  1.00271688 59136
DIRECTV 9S              
1 29494U 06043A   22249.45529965 -.00000128  00000+0  00000+0 0  9995
2 29494   0.0117 165.7575 0003152 352.7399 249.7271  1.00271726 58274
XM-4 (BLUES)            
1 29520U 06049A   22249.49323462 -.00000220  00000+0  00000+0 0  9992
2 29520   0.0668 312.9101 0001541  11.2558 113.8518  1.00271608 37642
GALAXY 17 (G-17)        
1 31307U 07016B   22249.50512205 -.00000189  00000+0  00000+0 0  9994
2 31307   0.0274 124.1248 0002826  41.2795 271.0107  1.00268822 55969
DIRECTV 10              
1 31862U 07032A   22249.34632455 -.00000117  00000+0  00000+0 0  9991
2 31862   0.0419 313.0909 0000335 234.8611 179.3325  1.00269915 31756
SPACEWAY 3              
1 32018U 07036A   22249.13257389 -.00000165  00000+0  00000+0 0  9998
2 32018   0.4274  90.2920 0000653  15.5991 192.0843  1.00270763 32715
INTELSAT 11 (IS-11)     
1 32253U 07044B   22249.44979837 -.00000283  00000+0  00000+0 0  9992
2 32253   0.0156 119.3397 0001985  65.5788 279.5357  1.00270339 54668
HORIZONS-2              
1 32388U 07063B   22249.43045035 -.00000287  00000+0  00000+0 0  9999
2 32388   0.0188 124.5677 0003117 346.1973 349.5973  0.99710700 53988
DIRECTV 11              
1 32729U 08013A   22249.34632455 -.00000140  00000+0  00000+0 0  9990
2 32729   0.0348 341.8126 0000185 178.6602 210.4225  1.00271228 31754
GALAXY 18 (G-18)        
1 32951U 08024A   22249.48573537  .00000010  00000+0  00000+0 0  9994
2 32951   0.0244 250.4524 0003474 277.9777 228.9800  1.00272774 32013
INTELSAT 25 (IS-25)     
1 33153U 08034A   22249.43219435 -.00000238  00000+0  00000+0 0  9992
2 33153   0.0098 153.9555 0003139   6.1417 309.4931  1.00272040 51867
GALAXY 19 (G-19)        
1 33376U 08045A   22249.49088021 -.00000154  00000+0  00000+0 0  9999
2 33376   0.0469 280.1855 0003186 245.7760 259.3095  1.00270853 51062
FM-5                    
1 35493U 09034A   22249.49306021 -.00000215  00000+0  00000+0 0  9991
2 35493   0.0212 142.4703 0000637 279.8176  14.6239  1.00267951 32807
INTELSAT 14 (IS-14)     
1 36097U 09064A   22249.44979837 -.00000288  00000+0  00000+0 0  9991
2 36097   0.0175 135.2190 0002433  33.9546 293.2754  1.00271105 46776
INTELSAT 15 (IS-15)     
1 36106U 09067A   22249.49448985 -.00000200  00000+0  00000+0 0  9999
2 36106   0.0314 298.9321 0002426 223.2258  86.5679  1.00270177 27395
DIRECTV 12              
1 36131U 09075A   22249.34632455 -.00000118  00000+0  00000+0 0  9995
2 36131   0.0329 288.1809 0000129 235.6163 203.5747  1.00270859 32728
INTELSAT 16 (IS-16)     
1 36397U 10006A   22249.49506581 -.00000259  00000+0  00000+0 0  9997
2 36397   0.0314 287.5449 0002387 235.4024 284.6467  1.00269983 45810
XM-5                    
1 37185U 10053A   22249.48730498 -.00000038  00000+0  00000+0 0  9995
2 37185   0.0147 174.9963 0000852 243.1636 347.6242  1.00269158 43644
INTELSAT 17 (IS-17)     
1 37238U 10065B   22249.45164003 -.00000017  00000+0  00000+0 0  9994
2 37238   0.0290 212.9566 0002690 331.0475  30.1010  1.00271853 39405
INTELSAT NEW DAWN       
1 37392U 11016A   22249.39632781  .00000141  00000+0  00000+0 0  9995
2 37392   0.0115 167.7361 0001047 322.6370  30.5409  1.00270740 39452
INTELSAT 18 (IS-18)     
1 37834U 11056A   22249.54137362  .00000037  00000+0  00000+0 0  9996
2 37834   0.0345 327.2240 0002272 182.2055 211.0709  1.00269620 39979
INTELSAT 22 (IS-22)     
1 38098U 12011A   22249.48960226 -.00000074  00000+0  00000+0 0  9999
2 38098   0.0214 225.6529 0002891 312.7628  55.5000  1.00271625 37983
INTELSAT 19 (IS-19)     
1 38356U 12030A   22249.47160890 -.00000072  00000+0  00000+0 0  9993
2 38356   0.0188 135.9235 0003123  29.7605 155.6348  1.00271879 36602
INTELSAT 20 (IS-20)     
1 38740U 12043A   22249.38868802 -.00000039  00000+0  00000+0 0  9995
2 38740   0.0158 145.3628 0001568  38.4302  10.0827  1.00271084 36917
INTELSAT 21 (IS-21)     
1 38749U 12045A   22249.45535569 -.00000299  00000+0  00000+0 0  9993
2 38749   0.0273 132.1094 0002578  40.6975 278.6463  1.00268201 36698
INTELSAT 23 (IS-23)     
1 38867U 12057A   22249.44979837 -.00000299  00000+0  00000+0 0  9996
2 38867   0.0447 271.9768 0000852 246.6016 295.8655  1.00263251 36109
FM-6                    
1 39360U 13058A   22249.48704337 -.00000032  00000+0  00000+0 0  9997
2 39360   0.0523 271.7814 0000458 147.8682 345.0706  1.00270164 32221
INTELSAT 30 (IS-30)     
1 40271U 14062A   22249.49131619 -.00000165  00000+0  00000+0 0  9991
2 40271   0.0164 234.0388 0002409 211.6550 341.6823  1.00269939 28747
DIRECTV 14              
1 40333U 14078B   22249.34632455 -.00000140  00000+0  00000+0 0  9998
2 40333   0.0134 107.3870 0000269 356.3749 267.1109  1.00271634 28227
DIRECTV 15              
1 40663U 15026A   22249.48974659 -.00000117  00000+0  00000+0 0  9992
2 40663   0.0133 114.8500 0000774 293.0967  11.0641  1.00270220 26624
SKY MEXICO-1            
1 40664U 15026B   22249.49454260 -.00000249  00000+0  00000+0 0  9991
2 40664   0.0228 124.3038 0002273  62.0209 258.5069  1.00268558 26613
INTELSAT 34 (IS-34)     
1 40874U 15039A   22249.49916424 -.00000300  00000+0  00000+0 0  9991
2 40874   0.0480 302.0499 0000917 126.8846  40.8509  1.00270257 25799
INTELSAT 31 (IS-31)     
1 41581U 16035A   22249.49131619 -.00000166  00000+0  00000+0 0  9999
2 41581   0.0223 225.0946 0001084 335.6675 226.6141  1.00270766 22852
INTELSAT 36 (IS-36)     
1 41747U 16053A   22249.48940267 -.00000039  00000+0  00000+0 0  9998
2 41747   0.0213 120.6648 0002442 249.2611 220.3091  1.00269544 22119
INTELSAT 33E (IS-33E)   
1 41748U 16053B   22249.48605178  .00000034  00000+0  00000+0 0  9992
2 41748   0.0212 127.8497 0001127  45.8930  46.7755  1.00269325 22410
INTELSAT 32E (IS-32E)   
1 41945U 17007B   22249.44979837 -.00000284  00000+0  00000+0 0  9991
2 41945   0.0178 139.7375 0000545 308.0243  16.5048  1.00269581 20402
INTELSAT 35E (IS-35E)   
1 42818U 17041A   22249.43158395 -.00000253  00000+0  00000+0 0  9992
2 42818   0.0270 143.8580 0001829  18.5299 303.9749  1.00267937 18983
INTELSAT 37E (IS-37E)   
1 42950U 17059A   22249.43489756 -.00000156  00000+0  00000+0 0  9998
2 42950   0.0160 149.6398 0002841  20.2842 314.1345  1.00270531 18236
AZERSPACE 2 (IS-38)     
1 43632U 18074A   22249.44745441  .00000121  00000+0  00000+0 0  9992
2 43632   0.0177 141.0920 0001637  18.4208  32.1874  1.00270460 14619
HORIZONS-3E             
1 43633U 18074B   22249.18799285 -.00000045  00000+0  00000+0 0  9995
2 43633   0.0394 323.5499 0001001 338.5941 279.7724  1.00271538 14489
AT&T T-16               
1 44333U 19034A   22249.45529997 -.00000130  00000+0  00000+0 0  9996
2 44333   0.0171 186.1790 0000845 238.1108 344.2831  1.00268600 11796
INTELSAT 39 (IS-39)     
1 44476U 19049B   22249.48594407  .00000018  00000+0  00000+0 0  9995
2 44476   0.0168 188.9505 0000797 201.1008 192.3826  1.00270071 11307
GALAXY 30 (G-30)        
1 46114U 20056C   22248.98311251  .00000024  00000+0  00000+0 0  9991
2 46114   0.0190 143.3386 0002666  28.0238  42.6229  1.00272638  7459
